ONEWEB-0279             
1 48997U 21060AG  26005.26028314 -.00000051  00000+0 -16676-3 0  9991
2 48997  87.9045 261.2106 0001607  65.1124 295.0174 13.16594956218180
ONEWEB-0280             
1 48998U 21060AH  26005.12331041 -.00000125  00000+0 -36127-3 0  9996
2 48998  87.9045 261.2439 0001155  72.3127 287.8130 13.16594189218102
ONEWEB-0281             
1 48999U 21060AJ  26005.12887571  .00000132  00000+0  31134-3 0  9990
2 48999  87.9042 261.2379 0001632  74.4272 285.7039 13.16594501218177
ONEWEB-0282             
1 49000U 21060AK  26005.23494561  .00000167  00000+0  40216-3 0  9998
2 49000  87.9043 261.2272 0001379  71.4296 288.6985 13.16594131218165
ONEWEB-0283             
1 49001U 21060AL  26005.14787127  .00000204  00000+0  50128-3 0  9997
2 49001  87.9041 261.2449 0001520  66.3125 293.8165 13.16594262218165
ONEWEB-0284             
1 49002U 21060AM  26005.14153425  .00000188  00000+0  45766-3 0  9999
2 49002  87.9043 261.2363 0001128  79.4109 280.7149 13.16593711218147
ONEWEB-0285             
1 49075U 21075A   26005.29318658 -.00000510  00000+0 -14543-2 0  9991
2 49075  87.8923  23.0076 0001692  91.1422 268.9900 13.12441345213849
ONEWEB-0286             
1 49076U 21075B   26005.27599732  .00000205  00000+0  53546-3 0  9990
2 49076  87.8919  23.0429 0001925  95.5570 264.5778 13.12441652213192
ONEWEB-0287             
1 49077U 21075C   26005.13169548  .00000067  00000+0  13871-3 0  9997
2 49077  87.9094  38.2813 0002066 106.0299 254.1060 13.17648109212151
ONEWEB-0288             
1 49078U 21075D   26005.32865924  .00000330  00000+0  88125-3 0  9997
2 49078  87.8924  22.9960 0001663  95.1175 265.0143 13.12445273213829
ONEWEB-0289             
1 49079U 21075E   26005.32225408 -.00000004  00000+0 -43568-4 0  9998
2 49079  87.9086  38.2562 0001345 102.4541 257.6741 13.17649038212756
ONEWEB-0290             
1 49080U 21075F   26005.14351969  .00000060  00000+0  12235-3 0  9998
2 49080  87.9095  38.2561 0001171  90.3619 269.7647 13.17649558212144
ONEWEB-0291             
1 49081U 21075G   26005.12833369  .00000031  00000+0  46537-4 0  9997
2 49081  87.9098  38.2665 0001731 108.9552 251.1768 13.17649871212133
ONEWEB-0293             
1 49082U 21075H   26005.15364798  .00000046  00000+0  86169-4 0  9997
2 49082  87.9087  38.2793 0001618  96.5167 263.6149 13.17650429212167
ONEWEB-0294             
1 49083U 21075J   26005.33543724  .00000433  00000+0  11686-2 0  9996
2 49083  87.8924  22.9967 0001384  95.7689 264.3598 13.12444903213216
ONEWEB-0295             
1 49084U 21075K   26005.15278690  .00000052  00000+0  10189-3 0  9999
2 49084  87.9087  38.2839 0001781 105.2256 254.9072 13.17650789212121
