[{"OBJECT_NAME":"ONEWEB-0279","OBJECT_ID":"2021-060AG","EPOCH":"2026-01-05T06:14:48.463296","MEAN_MOTION":13.16594956,"ECCENTRICITY":0.0001607,"INCLINATION":87.9045,"RA_OF_ASC_NODE":261.2106,"ARG_OF_PERICENTER":65.1124,"MEAN_ANOMALY":295.0174,"EPHEMERIS_TYPE":0,"CLASSIFICATION_TYPE":"U","NORAD_CAT_ID":48997,"ELEMENT_SET_NO":999,"REV_AT_EPOCH":21818,"BSTAR":-0.00016676196,"MEAN_MOTION_DOT":-5.1e-7,"MEAN_MOTION_DDOT":0},{"OBJECT_NAME":"ONEWEB-0280","OBJECT_ID":"2021-060AH","EPOCH":"2026-01-05T02:57:34.019424","MEAN_MOTION":13.16594189,"ECCENTRICITY":0.00011553,"INCLINATION":87.9045,"RA_OF_ASC_NODE":261.2439,"ARG_OF_PERICENTER":72.3127,"MEAN_ANOMALY":287.813,"EPHEMERIS_TYPE":0,"CLASSIFICATION_TYPE":"U","NORAD_CAT_ID":48998,"ELEMENT_SET_NO":999,"REV_AT_EPOCH":21810,"BSTAR":-0.00036126697,"MEAN_MOTION_DOT":-1.25e-6,"MEAN_MOTION_DDOT":0},{"OBJECT_NAME":"ONEWEB-0281","OBJECT_ID":"2021-060AJ","EPOCH":"2026-01-05T03:05:34.861344","MEAN_MOTION":13.16594501,"ECCENTRICITY":0.00016322,"INCLINATION":87.9042,"RA_OF_ASC_NODE":261.2379,"ARG_OF_PERICENTER":74.4272,"MEAN_ANOMALY":285.7039,"EPHEMERIS_TYPE":0,"CLASSIFICATION_TYPE":"U","NORAD_CAT_ID":48999,"ELEMENT_SET_NO":999,"REV_AT_EPOCH":21817,"BSTAR":0.00031133791,"MEAN_MOTION_DOT":1.32e-6,"MEAN_MOTION_DDOT":0},{"OBJECT_NAME":"ONEWEB-0282","OBJECT_ID":"2021-060AK","EPOCH":"2026-01-05T05:38:19.300704","MEAN_MOTION":13.16594131,"ECCENTRICITY":0.00013798,"INCLINATION":87.9043,"RA_OF_ASC_NODE":261.2272,"ARG_OF_PERICENTER":71.4296,"MEAN_ANOMALY":288.6985,"EPHEMERIS_TYPE":0,"CLASSIFICATION_TYPE":"U","NORAD_CAT_ID":49000,"ELEMENT_SET_NO":999,"REV_AT_EPOCH":21816,"BSTAR":0.00040216196,"MEAN_MOTION_DOT":1.67e-6,"MEAN_MOTION_DDOT":0},{"OBJECT_NAME":"ONEWEB-0283","OBJECT_ID":"2021-060AL","EPOCH":"2026-01-05T03:32:56.077728","MEAN_MOTION":13.16594262,"ECCENTRICITY":0.000152,"INCLINATION":87.9041,"RA_OF_ASC_NODE":261.2449,"ARG_OF_PERICENTER":66.3125,"MEAN_ANOMALY":293.8165,"EPHEMERIS_TYPE":0,"CLASSIFICATION_TYPE":"U","NORAD_CAT_ID":49001,"ELEMENT_SET_NO":999,"REV_AT_EPOCH":21816,"BSTAR":0.00050127597,"MEAN_MOTION_DOT":2.04e-6,"MEAN_MOTION_DDOT":0},{"OBJECT_NAME":"ONEWEB-0284","OBJECT_ID":"2021-060AM","EPOCH":"2026-01-05T03:23:48.559200","MEAN_MOTION":13.16593711,"ECCENTRICITY":0.00011285,"INCLINATION":87.9043,"RA_OF_ASC_NODE":261.2363,"ARG_OF_PERICENTER":79.4109,"MEAN_ANOMALY":280.7149,"EPHEMERIS_TYPE":0,"CLASSIFICATION_TYPE":"U","NORAD_CAT_ID":49002,"ELEMENT_SET_NO":999,"REV_AT_EPOCH":21814,"BSTAR":0.00045766239,"MEAN_MOTION_DOT":1.88e-6,"MEAN_MOTION_DDOT":0},{"OBJECT_NAME":"ONEWEB-0285","OBJECT_ID":"2021-075A","EPOCH":"2026-01-05T07:02:11.320512","MEAN_MOTION":13.12441345,"ECCENTRICITY":0.00016926,"INCLINATION":87.8923,"RA_OF_ASC_NODE":23.0076,"ARG_OF_PERICENTER":91.1422,"MEAN_ANOMALY":268.99,"EPHEMERIS_TYPE":0,"CLASSIFICATION_TYPE":"U","NORAD_CAT_ID":49075,"ELEMENT_SET_NO":999,"REV_AT_EPOCH":21384,"BSTAR":-0.0014543014,"MEAN_MOTION_DOT":-5.1e-6,"MEAN_MOTION_DDOT":0},{"OBJECT_NAME":"ONEWEB-0286","OBJECT_ID":"2021-075B","EPOCH":"2026-01-05T06:37:26.168448","MEAN_MOTION":13.12441652,"ECCENTRICITY":0.00019257,"INCLINATION":87.8919,"RA_OF_ASC_NODE":23.0429,"ARG_OF_PERICENTER":95.557,"MEAN_ANOMALY":264.5778,"EPHEMERIS_TYPE":0,"CLASSIFICATION_TYPE":"U","NORAD_CAT_ID":49076,"ELEMENT_SET_NO":999,"REV_AT_EPOCH":21319,"BSTAR":0.00053545979,"MEAN_MOTION_DOT":2.05e-6,"MEAN_MOTION_DDOT":0},{"OBJECT_NAME":"ONEWEB-0287","OBJECT_ID":"2021-075C","EPOCH":"2026-01-05T03:09:38.489472","MEAN_MOTION":13.17648109,"ECCENTRICITY":0.00020667,"INCLINATION":87.9094,"RA_OF_ASC_NODE":38.2813,"ARG_OF_PERICENTER":106.0299,"MEAN_ANOMALY":254.106,"EPHEMERIS_TYPE":0,"CLASSIFICATION_TYPE":"U","NORAD_CAT_ID":49077,"ELEMENT_SET_NO":999,"REV_AT_EPOCH":21215,"BSTAR":0.00013871221,"MEAN_MOTION_DOT":6.7e-7,"MEAN_MOTION_DDOT":0},{"OBJECT_NAME":"ONEWEB-0288","OBJECT_ID":"2021-075D","EPOCH":"2026-01-05T07:53:16.158336","MEAN_MOTION":13.12445273,"ECCENTRICITY":0.00016631,"INCLINATION":87.8924,"RA_OF_ASC_NODE":22.996,"ARG_OF_PERICENTER":95.1175,"MEAN_ANOMALY":265.0143,"EPHEMERIS_TYPE":0,"CLASSIFICATION_TYPE":"U","NORAD_CAT_ID":49078,"ELEMENT_SET_NO":999,"REV_AT_EPOCH":21382,"BSTAR":0.00088124616,"MEAN_MOTION_DOT":3.3e-6,"MEAN_MOTION_DDOT":0},{"OBJECT_NAME":"ONEWEB-0289","OBJECT_ID":"2021-075E","EPOCH":"2026-01-05T07:44:02.752512","MEAN_MOTION":13.17649038,"ECCENTRICITY":0.0001345,"INCLINATION":87.9086,"RA_OF_ASC_NODE":38.2562,"ARG_OF_PERICENTER":102.4541,"MEAN_ANOMALY":257.6741,"EPHEMERIS_TYPE":0,"CLASSIFICATION_TYPE":"U","NORAD_CAT_ID":49079,"ELEMENT_SET_NO":999,"REV_AT_EPOCH":21275,"BSTAR":-4.356817e-5,"MEAN_MOTION_DOT":-4.0e-8,"MEAN_MOTION_DDOT":0},{"OBJECT_NAME":"ONEWEB-0290","OBJECT_ID":"2021-075F","EPOCH":"2026-01-05T03:26:40.101216","MEAN_MOTION":13.17649558,"ECCENTRICITY":0.00011719,"INCLINATION":87.9095,"RA_OF_ASC_NODE":38.2561,"ARG_OF_PERICENTER":90.3619,"MEAN_ANOMALY":269.7647,"EPHEMERIS_TYPE":0,"CLASSIFICATION_TYPE":"U","NORAD_CAT_ID":49080,"ELEMENT_SET_NO":999,"REV_AT_EPOCH":21214,"BSTAR":0.00012235016,"MEAN_MOTION_DOT":6.0e-7,"MEAN_MOTION_DDOT":0},{"OBJECT_NAME":"ONEWEB-0291","OBJECT_ID":"2021-075G","EPOCH":"2026-01-05T03:04:48.030816","MEAN_MOTION":13.17649871,"ECCENTRICITY":0.00017314,"INCLINATION":87.9098,"RA_OF_ASC_NODE":38.2665,"ARG_OF_PERICENTER":108.9552,"MEAN_ANOMALY":251.1768,"EPHEMERIS_TYPE":0,"CLASSIFICATION_TYPE":"U","NORAD_CAT_ID":49081,"ELEMENT_SET_NO":999,"REV_AT_EPOCH":21213,"BSTAR":4.6536829e-5,"MEAN_MOTION_DOT":3.1e-7,"MEAN_MOTION_DDOT":0},{"OBJECT_NAME":"ONEWEB-0293","OBJECT_ID":"2021-075H","EPOCH":"2026-01-05T03:41:15.185472","MEAN_MOTION":13.17650429,"ECCENTRICITY":0.00016186,"INCLINATION":87.9087,"RA_OF_ASC_NODE":38.2793,"ARG_OF_PERICENTER":96.5167,"MEAN_ANOMALY":263.6149,"EPHEMERIS_TYPE":0,"CLASSIFICATION_TYPE":"U","NORAD_CAT_ID":49082,"ELEMENT_SET_NO":999,"REV_AT_EPOCH":21216,"BSTAR":8.6168531e-5,"MEAN_MOTION_DOT":4.6e-7,"MEAN_MOTION_DDOT":0},{"OBJECT_NAME":"ONEWEB-0294","OBJECT_ID":"2021-075J","EPOCH":"2026-01-05T08:03:01.777536","MEAN_MOTION":13.12444903,"ECCENTRICITY":0.00013843,"INCLINATION":87.8924,"RA_OF_ASC_NODE":22.9967,"ARG_OF_PERICENTER":95.7689,"MEAN_ANOMALY":264.3598,"EPHEMERIS_TYPE":0,"CLASSIFICATION_TYPE":"U","NORAD_CAT_ID":49083,"ELEMENT_SET_NO":999,"REV_AT_EPOCH":21321,"BSTAR":0.0011686484,"MEAN_MOTION_DOT":4.33e-6,"MEAN_MOTION_DDOT":0},{"OBJECT_NAME":"ONEWEB-0295","OBJECT_ID":"2021-075K","EPOCH":"2026-01-05T03:40:00.788160","MEAN_MOTION":13.17650789,"ECCENTRICITY":0.00017816,"INCLINATION":87.9087,"RA_OF_ASC_NODE":38.2839,"ARG_OF_PERICENTER":105.2256,"MEAN_ANOMALY":254.9072,"EPHEMERIS_TYPE":0,"CLASSIFICATION_TYPE":"U","NORAD_CAT_ID":49084,"ELEMENT_SET_NO":999,"REV_AT_EPOCH":21212,"BSTAR":0.00010188946,"MEAN_MOTION_DOT":5.2e-7,"MEAN_MOTION_DDOT":0}]
